1 88888U          80275.98708465  .00073094  13844-3  66816-4 0     8
2 88888  72.8435 115.9689 0086731  52.6988 110.5714 16.05824518   105

Reference number: 10
Ephem set number: 0
Ephem type: 0
Year: 1980
Day: 275.98708465
Average motion n0 ( rad/s ): 0.0700673126 ( 16.058245180 1/day )
BSTAR Drag term: 0.0000668160
Orbit declination i0 ( rad ): 1.2713589137 (  72.8435 deg )
Right accending raan ( rad ): 2.0240391349 ( 115.9689 deg )
Excentricity e0: 0.0086731
Perigelium arg w0 ( rad ): 0.9197675718 (  52.6988 deg )
Average anomaly m0 ( rad ): 1.9298349885 ( 110.5714 deg )

   0  2328.8735564 -5995.2143792  1720.0503034  2.9121077 -0.9835397 -7.0908174
 360  2456.0468763 -6071.9067832  1222.8405402  2.6793628 -0.4482079 -7.2288881
 720  2567.6857356 -6112.4106602   713.2911183  2.4399251  0.0989414 -7.3201904
1080  2663.4966523 -6115.1834406   194.6255497  2.1952515  0.6545397 -7.3630921
1440  2743.2953486 -6078.9085133  -329.7413824  1.9468065  1.2150092 -7.3562579

Отклонения от эталона:
   0  0.00090627 -0.00148853  0.00145999  0.00000110 -0.00000119 -0.00000182
 360  0.00109994 -0.00187600 -0.00032588  0.00000038  0.00000057 -0.00000253
 720  0.00189768 -0.00184669 -0.00170544 -0.00000042  0.00000225 -0.00000272
1080  0.00156558 -0.00161688 -0.00261841 -0.00000083  0.00000309 -0.00000236
1440  0.00295964 -0.00067640 -0.00704174 -0.00000309  0.00000807 -0.00000199
